0 COSMOS 2251 DEB
1 35039U 93036AHC 13282.65009939  .00005936  00000-0  17477-2 0  5513
2 35039 074.0325 131.2701 0041778 226.7773 191.4724 14.43356993234069
0 COSMOS 2251 DEB
1 35039U 93036AHC 13283.89784870  .00006812  00000-0  20038-2 0  5526
2 35039 074.0326 128.9513 0041717 224.1469 194.9291 14.43369132234247
0 COSMOS 2251 DEB
1 35039U 93036AHC 13285.22603274  .00006090  00000-0  17921-2 0  5539
2 35039 074.0326 126.4830 0041628 221.3717 256.3664 14.43383004234430
0 COSMOS 2251 DEB
1 35039U 93036AHC 13286.26547604  .00005752  00000-0  16926-2 0  5547
2 35039 074.0324 124.5513 0041568 219.2159 257.4955 14.43394614234584
0 COSMOS 2251 DEB
1 35039U 93036AHC 13289.24713200  .00009461  00000-0  27751-2 0  5555
2 35039 074.0313 119.0094 0041411 213.0185 271.0100 14.43439050235010
0 COSMOS 2251 DEB
1 35039U 93036AHC 13290.89946998  .00008961  00000-0  26277-2 0  5567
2 35039 074.0313 115.9388 0041309 209.6062 217.2239 14.43466639235256
0 COSMOS 2251 DEB
1 35039U 93036AHC 13291.95541851  .00008587  00000-0  25178-2 0  5578
2 35039 074.0313 113.9757 0041300 207.3792 304.4867 14.43483530235413
0 COSMOS 2251 DEB
1 35039U 93036AHC 13293.19714356  .00010032  00000-0  29380-2 0  5586
2 35039 074.0317 111.6678 0041275 204.8170 277.1741 14.43505234235588
0 COSMOS 2251 DEB
1 35039U 93036AHC 13294.49648716  .00012043  00000-0  35231-2 0  5593
2 35039 074.0320 109.2523 0041164 202.1456 189.3678 14.43525530235774
0 COSMOS 2251 DEB
1 35039U 93036AHC 13295.81876394  .00013069  00000-0  38201-2 0  5606
2 35039 074.0325 106.7947 0041060 199.4953 220.7820 14.43551985235969
